{"type": "FeatureCollection", "features": [ {"type": "Feature", "properties": {"norad_id": 36234, "name": "FENGYUN 1C DEB", "group": "fengyun-1c-debris", "lat": 7.746315574084519, "lon": 48.911338276580004, "alt_km": 900.910012022342, "timestamp": "2025-12-05T14:45:15.587189+00:00", "meta": {"OBJECT_NAME": "FENGYUN 1C DEB", "OBJECT_ID": "1999-025DVK", "EPOCH": "2025-12-03T10:58:09.682464", "MEAN_MOTION": 13.45652175, "ECCENTRICITY": 0.03179973, "INCLINATION": 99.0038, "RA_OF_ASC_NODE": 48.2074, "ARG_OF_PERICENTER": 51.7267, "MEAN_ANOMALY": 311.2025, "EPHEMERIS_TYPE": 0, "CLASSIFICATION_TYPE": "U", "NORAD_CAT_ID": 36234, "ELEMENT_SET_NO": 999, "REV_AT_EPOCH": 87822, "BSTAR": 0.00044117978, "MEAN_MOTION_DOT": 3.19e-06, "MEAN_MOTION_DDOT": 0}, "tle": {"line1": "1 36234U 99025DVK 25337.45705651  .00000319  00000+0  44118-3 0  9999", "line2": "2 36234  99.0038  48.2074 0317997  51.7267 311.2025 13.45652175878228"}}, "geometry": {"type": "Point", "coordinates": [48.911338276580004, 7.746315574084519]}}, {"type": "Feature", "properties": {"norad_id": 36236, "name": "FENGYUN 1C DEB", "group": "fengyun-1c-debris", "lat": -73.18128681618285, "lon": 51.47712450008199, "alt_km": 968.2608401892539, "timestamp": "2025-12-05T14:45:15.587199+00:00", "meta": {"OBJECT_NAME": "FENGYUN 1C DEB", "OBJECT_ID": "1999-025DVM", "EPOCH": "2025-12-01T08:35:44.954016", "MEAN_MOTION": 13.81944327, "ECCENTRICITY": 0.01498012, "INCLINATION": 98.8512, "RA_OF_ASC_NODE": 16.4502, "ARG_OF_PERICENTER": 28.7889, "MEAN_ANOMALY": 332.1431, "EPHEMERIS_TYPE": 0, "CLASSIFICATION_TYPE": "U", "NORAD_CAT_ID": 36236, "ELEMENT_SET_NO": 999, "REV_AT_EPOCH": 59590, "BSTAR": 0.00038398247, "MEAN_MOTION_DOT": 4.09e-06, "MEAN_MOTION_DDOT": 0}, "tle": {"line1": "1 36236U 99025DVM 25335.35815919  .00000409  00000+0  38398-3 0  9990", "line2": "2 36236  98.8512  16.4502 0149801  28.7889 332.1431 13.81944327595905"}}, "geometry": {"type": "Point", "coordinates": [51.47712450008199, -73.18128681618285]}}, {"type": "Feature", "properties": {"norad_id": 36238, "name": "FENGYUN 1C DEB", "group": "fengyun-1c-debris", "lat": 6.320211447844389, "lon": -48.633247905569284, "alt_km": 846.5450990254685, "timestamp": "2025-12-05T14:45:15.587212+00:00", "meta": {"OBJECT_NAME": "FENGYUN 1C DEB", "OBJECT_ID": "1999-025DVP", "EPOCH": "2025-12-02T15:18:56.487456", "MEAN_MOTION": 14.12385356, "ECCENTRICITY": 0.00203802, "INCLINATION": 98.6457, "RA_OF_ASC_NODE": 309.4608, "ARG_OF_PERICENTER": 311.9988, "MEAN_ANOMALY": 47.9448, "EPHEMERIS_TYPE": 0, "CLASSIFICATION_TYPE": "U", "NORAD_CAT_ID": 36238, "ELEMENT_SET_NO": 999, "REV_AT_EPOCH": 86875, "BSTAR": 0.00011760709, "MEAN_MOTION_DOT": 1.75e-06, "MEAN_MOTION_DDOT": 0}, "tle": {"line1": "1 36238U 99025DVP 25336.63815379  .00000175  00000+0  11761-3 0  9999", "line2": "2 36238  98.6457 309.4608 0020380 311.9988  47.9448 14.12385356868753"}}, "geometry": {"type": "Point", "coordinates": [-48.633247905569284, 6.320211447844389]}}, {"type": "Feature", "properties": {"norad_id": 36244, "name": "FENGYUN 1C DEB", "group": "fengyun-1c-debris", "lat": -51.93013204549248, "lon": 101.68881781231782, "alt_km": 781.1043228668932, "timestamp": "2025-12-05T14:45:15.587224+00:00", "meta": {"OBJECT_NAME": "FENGYUN 1C DEB", "OBJECT_ID": "1999-025DVV", "EPOCH": "2025-12-01T06:30:33.359616", "MEAN_MOTION": 14.24827854, "ECCENTRICITY": 0.00483696, "INCLINATION": 98.9263, "RA_OF_ASC_NODE": 85.6985, "ARG_OF_PERICENTER": 317.9202, "MEAN_ANOMALY": 41.8266, "EPHEMERIS_TYPE": 0, "CLASSIFICATION_TYPE": "U", "NORAD_CAT_ID": 36244, "ELEMENT_SET_NO": 999, "REV_AT_EPOCH": 91815, "BSTAR": 0.0019641891, "MEAN_MOTION_DOT": 4.594e-05, "MEAN_MOTION_DDOT": 0}, "tle": {"line1": "1 36244U 99025DVV 25335.27121944  .00004594  00000+0  19642-2 0  9997", "line2": "2 36244  98.9263  85.6985 0048369 317.9202  41.8266 14.24827854918159"}}, "geometry": {"type": "Point", "coordinates": [101.68881781231782, -51.93013204549248]}}, {"type": "Feature", "properties": {"norad_id": 36247, "name": "FENGYUN 1C DEB", "group": "fengyun-1c-debris", "lat": 34.447100618701185, "lon": -12.722173942341305, "alt_km": 650.9855097407053, "timestamp": "2025-12-05T14:45:15.587235+00:00", "meta": {"OBJECT_NAME": "FENGYUN 1C DEB", "OBJECT_ID": "1999-025DVY", "EPOCH": "2025-12-01T11:45:50.986944", "MEAN_MOTION": 14.33529137, "ECCENTRICITY": 0.01878056, "INCLINATION": 98.2683, "RA_OF_ASC_NODE": 349.0587, "ARG_OF_PERICENTER": 67.2123, "MEAN_ANOMALY": 294.8783, "EPHEMERIS_TYPE": 0, "CLASSIFICATION_TYPE": "U", "NORAD_CAT_ID": 36247, "ELEMENT_SET_NO": 999, "REV_AT_EPOCH": 70101, "BSTAR": 0.00050385684, "MEAN_MOTION_DOT": 1.653e-05, "MEAN_MOTION_DDOT": 0}, "tle": {"line1": "1 36247U 99025DVY 25335.49017346  .00001653  00000+0  50386-3 0  9998", "line2": "2 36247  98.2683 349.0587 0187805  67.2123 294.8783 14.33529137701014"}}, "geometry": {"type": "Point", "coordinates": [-12.722173942341305, 34.447100618701185]}}, {"type": "Feature", "properties": {"norad_id": 36254, "name": "FENGYUN 1C DEB", "group": "fengyun-1c-debris", "lat": 74.77642099085364, "lon": 150.02108973481964, "alt_km": 485.91553278146057, "timestamp": "2025-12-05T14:45:15.587245+00:00", "meta": {"OBJECT_NAME": "FENGYUN 1C DEB", "OBJECT_ID": "1999-025DWF", "EPOCH": "2025-11-28T03:13:13.440576", "MEAN_MOTION": 15.14661368, "ECCENTRICITY": 0.00473049, "INCLINATION": 99.5271, "RA_OF_ASC_NODE": 282.5527, "ARG_OF_PERICENTER": 88.2617, "MEAN_ANOMALY": 272.4026, "EPHEMERIS_TYPE": 0, "CLASSIFICATION_TYPE": "U", "NORAD_CAT_ID": 36254, "ELEMENT_SET_NO": 999, "REV_AT_EPOCH": 60555, "BSTAR": 0.0039684562, "MEAN_MOTION_DOT": 0.00076108, "MEAN_MOTION_DDOT": 0}, "tle": {"line1": "1 36254U 99025DWF 25332.13418334  .00076108  00000+0  39685-2 0  9991", "line2": "2 36254  99.5271 282.5527 0047304  88.2617 272.4026 15.14661368605551"}}, "geometry": {"type": "Point", "coordinates": [150.02108973481964, 74.77642099085364]}}, {"type": "Feature", "properties": {"norad_id": 36255, "name": "FENGYUN 1C DEB", "group": "fengyun-1c-debris", "lat": 80.14181483217843, "lon": 152.68062380560747, "alt_km": 763.5426711651035, "timestamp": "2025-12-05T14:45:15.587255+00:00", "meta": {"OBJECT_NAME": "FENGYUN 1C DEB", "OBJECT_ID": "1999-025DWG", "EPOCH": "2025-12-03T00:46:33.057120", "MEAN_MOTION": 14.36499464, "ECCENTRICITY": 0.00635056, "INCLINATION": 99.4338, "RA_OF_ASC_NODE": 256.7644, "ARG_OF_PERICENTER": 191.8797, "MEAN_ANOMALY": 234.2897, "EPHEMERIS_TYPE": 0, "CLASSIFICATION_TYPE": "U", "NORAD_CAT_ID": 36255, "ELEMENT_SET_NO": 999, "REV_AT_EPOCH": 63871, "BSTAR": 0.0010002372, "MEAN_MOTION_DOT": 2.953e-05, "MEAN_MOTION_DDOT": 0}, "tle": {"line1": "1 36255U 99025DWG 25337.03232705  .00002953  00000+0  10002-2 0  9991", "line2": "2 36255  99.4338 256.7644 0063505 191.8797 234.2897 14.36499464638714"}}, "geometry": {"type": "Point", "coordinates": [152.68062380560747, 80.14181483217843]}}, {"type": "Feature", "properties": {"norad_id": 36258, "name": "FENGYUN 1C DEB", "group": "fengyun-1c-debris", "lat": -44.0984053533713, "lon": 17.15242360392064, "alt_km": 771.3285673589662, "timestamp": "2025-12-05T14:45:15.587265+00:00", "meta": {"OBJECT_NAME": "FENGYUN 1C DEB", "OBJECT_ID": "1999-025DWK", "EPOCH": "2025-12-03T07:36:00.822816", "MEAN_MOTION": 14.74771314, "ECCENTRICITY": 0.0173413, "INCLINATION": 99.0882, "RA_OF_ASC_NODE": 5.6512, "ARG_OF_PERICENTER": 154.8998, "MEAN_ANOMALY": 206.0764, "EPHEMERIS_TYPE": 0, "CLASSIFICATION_TYPE": "U", "NORAD_CAT_ID": 36258, "ELEMENT_SET_NO": 999, "REV_AT_EPOCH": 90683, "BSTAR": 0.00043394, "MEAN_MOTION_DOT": 3.631e-05, "MEAN_MOTION_DDOT": 0}, "tle": {"line1": "1 36258U 99025DWK 25337.31667619  .00003631  00000+0  43394-3 0  9996", "line2": "2 36258  99.0882   5.6512 0173413 154.8998 206.0764 14.74771314906834"}}, "geometry": {"type": "Point", "coordinates": [17.15242360392064, -44.0984053533713]}}, {"type": "Feature", "properties": {"norad_id": 36260, "name": "FENGYUN 1C DEB", "group": "fengyun-1c-debris", "lat": -9.581769641243598, "lon": 160.52406498008824, "alt_km": 843.6772138296474, "timestamp": "2025-12-05T14:45:15.587276+00:00", "meta": {"OBJECT_NAME": "FENGYUN 1C DEB", "OBJECT_ID": "1999-025DWM", "EPOCH": "2025-12-03T17:44:50.798112", "MEAN_MOTION": 14.15362568, "ECCENTRICITY": 0.0014917, "INCLINATION": 98.6608, "RA_OF_ASC_NODE": 340.1773, "ARG_OF_PERICENTER": 277.2029, "MEAN_ANOMALY": 82.7449, "EPHEMERIS_TYPE": 0, "CLASSIFICATION_TYPE": "U", "NORAD_CAT_ID": 36260, "ELEMENT_SET_NO": 999, "REV_AT_EPOCH": 87681, "BSTAR": 0.00025923312, "MEAN_MOTION_DOT": 4.63e-06, "MEAN_MOTION_DDOT": 0}, "tle": {"line1": "1 36260U 99025DWM 25337.73947683  .00000463  00000+0  25923-3 0  9995", "line2": "2 36260  98.6608 340.1773 0014917 277.2029  82.7449 14.15362568876817"}}, "geometry": {"type": "Point", "coordinates": [160.52406498008824, -9.581769641243598]}}, {"type": "Feature", "properties": {"norad_id": 36261, "name": "FENGYUN 1C DEB", "group": "fengyun-1c-debris", "lat": -60.887405617592854, "lon": -107.95783470266538, "alt_km": 1334.1461347653221, "timestamp": "2025-12-05T14:45:15.587286+00:00", "meta": {"OBJECT_NAME": "FENGYUN 1C DEB", "OBJECT_ID": "1999-025DWN", "EPOCH": "2025-12-02T22:49:55.041600", "MEAN_MOTION": 13.45467056, "ECCENTRICITY": 0.03552723, "INCLINATION": 101.3643, "RA_OF_ASC_NODE": 227.8571, "ARG_OF_PERICENTER": 97.9346, "MEAN_ANOMALY": 266.225, "EPHEMERIS_TYPE": 0, "CLASSIFICATION_TYPE": "U", "NORAD_CAT_ID": 36261, "ELEMENT_SET_NO": 999, "REV_AT_EPOCH": 84301, "BSTAR": 0.00066301052, "MEAN_MOTION_DOT": 5.22e-06, "MEAN_MOTION_DDOT": 0}, "tle": {"line1": "1 36261U 99025DWN 25336.95133150  .00000522  00000+0  66301-3 0  9996", "line2": "2 36261 101.3643 227.8571 0355272  97.9346 266.2250 13.45467056843012"}}, "geometry": {"type": "Point", "coordinates": [-107.95783470266538, -60.887405617592854]}}]}